ONEWEB-0153             
1 48044U 21025C   24099.98673460 -.00000075  00000+0 -23961-3 0  9994
2 48044  87.8902 119.3166 0002022  95.2725 264.8635 13.13470841148637
ONEWEB-0154             
1 48045U 21025D   24100.28827586  .00000070  00000+0  15677-3 0  9999
2 48045  87.8898 119.2700 0001931  93.5852 266.5498 13.13470784148648
ONEWEB-0116             
1 48046U 21025E   24100.32955095  .00000074  00000+0  16753-3 0  9992
2 48046  87.8899 119.2285 0001838  88.1694 271.9645 13.13471243148788
ONEWEB-0150             
1 48047U 21025F   24100.45650146 -.00000256  00000+0 -73634-3 0  9991
2 48047  87.8894 119.2260 0002130  92.6106 267.5267 13.13470340148699
ONEWEB-0107             
1 48048U 21025G   24100.00103243 -.00000238  00000+0 -68804-3 0  9997
2 48048  87.8896 119.3151 0002316  95.5355 264.6039 13.13470633148618
ONEWEB-0101             
1 48049U 21025H   24100.11687411  .00000383  00000+0  10146-2 0  9998
2 48049  87.8900 119.3043 0001930  96.3998 263.7351 13.13468086148603
ONEWEB-0113             
1 48050U 21025J   24100.01849036  .00000035  00000+0  59748-4 0  9999
2 48050  87.8898 119.3060 0001842  88.9472 271.1868 13.13471310148673
ONEWEB-0112             
1 48051U 21025K   24100.46285305 -.00000322  00000+0 -91573-3 0  9994
2 48051  87.8893 119.2207 0002030  90.0515 270.0846 13.13470591148756
